{
  "type": "FeatureCollection",
  "features": [
    {
      "type": "Feature",
      "properties": {
        "norad_id": 29486,
        "name": "GPS BIIRM-2 (PRN 31)",
        "group": "gps-ops",
        "lat": -20.851409645013035,
        "lon": -5.8820630416490545,
        "alt_km": 20440.692119547784,
        "timestamp": "2025-12-19T18:58:41.846857+00:00",
        "meta_object_name": "GPS BIIRM-2 (PRN 31)",
        "meta_object_id": "2006-042A",
        "meta_epoch": "2025-12-18T13:15:57.668256",
        "meta_mean_motion": 2.00553965,
        "meta_eccentricity": 0.01073199,
        "meta_inclination": 54.6948,
        "meta_ra_of_asc_node": 158.5101,
        "meta_arg_of_pericenter": 52.102,
        "meta_mean_anomaly": 339.2959,
        "meta_ephemeris_type": 0,
        "meta_classification_type": "U",
        "meta_norad_cat_id": 29486,
        "meta_element_set_no": 999,
        "meta_rev_at_epoch": 14077,
        "meta_bstar": 0,
        "meta_mean_motion_dot": 7.3e-07,
        "meta_mean_motion_ddot": 0,
        "tle_line1": "1 29486U 06042A   25352.55275079  .00000073  00000+0  00000+0 0  9996",
        "tle_line2": "2 29486  54.6948 158.5101 0107319  52.1020 339.2959  2.00553965140773"
      },
      "geometry": {
        "type": "Point",
        "coordinates": [
          -5.8820630416490545,
          -20.851409645013035
        ]
      }
    },
    {
      "type": "Feature",
      "properties": {
        "norad_id": 29601,
        "name": "GPS BIIRM-3 (PRN 12)",
        "group": "gps-ops",
        "lat": -54.429039079155935,
        "lon": 119.77958984950742,
        "alt_km": 20419.942099069543,
        "timestamp": "2025-12-19T18:58:41.846869+00:00",
        "meta_object_name": "GPS BIIRM-3 (PRN 12)",
        "meta_object_id": "2006-052A",
        "meta_epoch": "2025-12-18T22:17:39.799968",
        "meta_mean_motion": 2.00574079,
        "meta_eccentricity": 0.0087942,
        "meta_inclination": 54.9692,
        "meta_ra_of_asc_node": 221.1525,
        "meta_arg_of_pericenter": 87.5066,
        "meta_mean_anomaly": 273.5974,
        "meta_ephemeris_type": 0,
        "meta_classification_type": "U",
        "meta_norad_cat_id": 29601,
        "meta_element_set_no": 999,
        "meta_rev_at_epoch": 13979,
        "meta_bstar": 0,
        "meta_mean_motion_dot": 7.7e-07,
        "meta_mean_motion_ddot": 0,
        "tle_line1": "1 29601U 06052A   25352.92893287  .00000077  00000+0  00000+0 0  9998",
        "tle_line2": "2 29601  54.9692 221.1525 0087942  87.5066 273.5974  2.00574079139795"
      },
      "geometry": {
        "type": "Point",
        "coordinates": [
          119.77958984950742,
          -54.429039079155935
        ]
      }
    },
    {
      "type": "Feature",
      "properties": {
        "norad_id": 32260,
        "name": "GPS BIIRM-4 (PRN 15)",
        "group": "gps-ops",
        "lat": 32.6924655229432,
        "lon": 115.28352994671909,
        "alt_km": 19858.459042665607,
        "timestamp": "2025-12-19T18:58:41.846880+00:00",
        "meta_object_name": "GPS BIIRM-4 (PRN 15)",
        "meta_object_id": "2007-047A",
        "meta_epoch": "2025-12-18T05:42:28.689120",
        "meta_mean_motion": 2.0056436,
        "meta_eccentricity": 0.01640962,
        "meta_inclination": 53.959,
        "meta_ra_of_asc_node": 87.5314,
        "meta_arg_of_pericenter": 85.3192,
        "meta_mean_anomaly": 276.5459,
        "meta_ephemeris_type": 0,
        "meta_classification_type": "U",
        "meta_norad_cat_id": 32260,
        "meta_element_set_no": 999,
        "meta_rev_at_epoch": 13318,
        "meta_bstar": 0,
        "meta_mean_motion_dot": -4.8e-07,
        "meta_mean_motion_ddot": 0,
        "tle_line1": "1 32260U 07047A   25352.23783205 -.00000048  00000+0  00000+0 0  9999",
        "tle_line2": "2 32260  53.9590  87.5314 0164096  85.3192 276.5459  2.00564360133188"
      },
      "geometry": {
        "type": "Point",
        "coordinates": [
          115.28352994671909,
          32.6924655229432
        ]
      }
    },
    {
      "type": "Feature",
      "properties": {
        "norad_id": 32384,
        "name": "GPS BIIRM-5 (PRN 29)",
        "group": "gps-ops",
        "lat": 5.918327283092956,
        "lon": 97.21595909432743,
        "alt_km": 20096.08571947291,
        "timestamp": "2025-12-19T18:58:41.846892+00:00",
        "meta_object_name": "GPS BIIRM-5 (PRN 29)",
        "meta_object_id": "2007-062A",
        "meta_epoch": "2025-12-19T04:08:10.010976",
        "meta_mean_motion": 2.00577702,
        "meta_eccentricity": 0.00322663,
        "meta_inclination": 55.1765,
        "meta_ra_of_asc_node": 281.388,
        "meta_arg_of_pericenter": 162.2119,
        "meta_mean_anomaly": 283.9132,
        "meta_ephemeris_type": 0,
        "meta_classification_type": "U",
        "meta_norad_cat_id": 32384,
        "meta_element_set_no": 999,
        "meta_rev_at_epoch": 13190,
        "meta_bstar": 0,
        "meta_mean_motion_dot": -3.8e-07,
        "meta_mean_motion_ddot": 0,
        "tle_line1": "1 32384U 07062A   25353.17233809 -.00000038  00000+0  00000+0 0  9996",
        "tle_line2": "2 32384  55.1765 281.3880 0032266 162.2119 283.9132  2.00577702131904"
      },
      "geometry": {
        "type": "Point",
        "coordinates": [
          97.21595909432743,
          5.918327283092956
        ]
      }
    },
    {
      "type": "Feature",
      "properties": {
        "norad_id": 32711,
        "name": "GPS BIIRM-6 (PRN 07)",
        "group": "gps-ops",
        "lat": 54.06475799995164,
        "lon": -103.30858967702324,
        "alt_km": 20636.24571691034,
        "timestamp": "2025-12-19T18:58:41.846903+00:00",
        "meta_object_name": "GPS BIIRM-6 (PRN 07)",
        "meta_object_id": "2008-012A",
        "meta_epoch": "2025-12-18T15:45:34.322400",
        "meta_mean_motion": 2.00565916,
        "meta_eccentricity": 0.02026894,
        "meta_inclination": 54.4778,
        "meta_ra_of_asc_node": 157.1367,
        "meta_arg_of_pericenter": 245.0129,
        "meta_mean_anomaly": 112.867,
        "meta_ephemeris_type": 0,
        "meta_classification_type": "U",
        "meta_norad_cat_id": 32711,
        "meta_element_set_no": 999,
        "meta_rev_at_epoch": 13013,
        "meta_bstar": 0,
        "meta_mean_motion_dot": 7e-07,
        "meta_mean_motion_ddot": 0,
        "tle_line1": "1 32711U 08012A   25352.65664725  .00000070  00000+0  00000+0 0  9998",
        "tle_line2": "2 32711  54.4778 157.1367 0202689 245.0129 112.8670  2.00565916130138"
      },
      "geometry": {
        "type": "Point",
        "coordinates": [
          -103.30858967702324,
          54.06475799995164
        ]
      }
    },
    {
      "type": "Feature",
      "properties": {
        "norad_id": 35752,
        "name": "GPS BIIRM-8 (PRN 05)",
        "group": "gps-ops",
        "lat": 47.67562875173522,
        "lon": 166.96424603954992,
        "alt_km": 20063.86792504109,
        "timestamp": "2025-12-19T18:58:41.846915+00:00",
        "meta_object_name": "GPS BIIRM-8 (PRN 05)",
        "meta_object_id": "2009-043A",
        "meta_epoch": "2025-12-18T04:21:14.473728",
        "meta_mean_motion": 2.00565462,
        "meta_eccentricity": 0.00516833,
        "meta_inclination": 56.0947,
        "meta_ra_of_asc_node": 34.5684,
        "meta_arg_of_pericenter": 81.8123,
        "meta_mean_anomaly": 312.8651,
        "meta_ephemeris_type": 0,
        "meta_classification_type": "U",
        "meta_norad_cat_id": 35752,
        "meta_element_set_no": 999,
        "meta_rev_at_epoch": 11973,
        "meta_bstar": 0,
        "meta_mean_motion_dot": -7.2e-07,
        "meta_mean_motion_ddot": 0,
        "tle_line1": "1 35752U 09043A   25352.18141752 -.00000072  00000+0  00000+0 0  9992",
        "tle_line2": "2 35752  56.0947  34.5684 0051683  81.8123 312.8651  2.00565462119738"
      },
      "geometry": {
        "type": "Point",
        "coordinates": [
          166.96424603954992,
          47.67562875173522
        ]
      }
    },
    {
      "type": "Feature",
      "properties": {
        "norad_id": 36585,
        "name": "GPS BIIF-1  (PRN 25)",
        "group": "gps-ops",
        "lat": -41.72336375346226,
        "lon": 75.67279025563616,
        "alt_km": 20518.490639122116,
        "timestamp": "2025-12-19T18:58:41.846926+00:00",
        "meta_object_name": "GPS BIIF-1  (PRN 25)",
        "meta_object_id": "2010-022A",
        "meta_epoch": "2025-12-18T07:00:57.218688",
        "meta_mean_motion": 2.00553566,
        "meta_eccentricity": 0.01263334,
        "meta_inclination": 54.2992,
        "meta_ra_of_asc_node": 215.8499,
        "meta_arg_of_pericenter": 65.1411,
        "meta_mean_anomaly": 167.812,
        "meta_ephemeris_type": 0,
        "meta_classification_type": "U",
        "meta_norad_cat_id": 36585,
        "meta_element_set_no": 999,
        "meta_rev_at_epoch": 11396,
        "meta_bstar": 0,
        "meta_mean_motion_dot": 8.3e-07,
        "meta_mean_motion_ddot": 0,
        "tle_line1": "1 36585U 10022A   25352.29232892  .00000083  00000+0  00000+0 0  9995",
        "tle_line2": "2 36585  54.2992 215.8499 0126333  65.1411 167.8120  2.00553566113961"
      },
      "geometry": {
        "type": "Point",
        "coordinates": [
          75.67279025563616,
          -41.72336375346226
        ]
      }
    }
  ]
}